{
  "type": "FeatureCollection",
  "features": [
    {
      "type": "Feature",
      "properties": {
        "norad_id": 2807,
        "name": "OPS 7218 (TRANSIT 16)",
        "group": "nnss",
        "lat": -59.039421003291714,
        "lon": 174.86894623303047,
        "alt_km": 1079.537627362649,
        "timestamp": "2025-12-03T10:52:57.721668+00:00",
        "meta_object_name": "OPS 7218 (TRANSIT 16)",
        "meta_object_id": "1967-048A",
        "meta_epoch": "2025-12-03T02:55:26.054976",
        "meta_mean_motion": 13.50719362,
        "meta_eccentricity": 0.0021451,
        "meta_inclination": 89.6735,
        "meta_ra_of_asc_node": 354.3353,
        "meta_arg_of_pericenter": 140.0023,
        "meta_mean_anomaly": 287.1767,
        "meta_ephemeris_type": 0,
        "meta_classification_type": "U",
        "meta_norad_cat_id": 2807,
        "meta_element_set_no": 999,
        "meta_rev_at_epoch": 88146,
        "meta_bstar": 0.00021375,
        "meta_mean_motion_dot": 1.48e-06,
        "meta_mean_motion_ddot": 0,
        "tle_line1": "1 02807U 67048A   25337.12182934  .00000148  00000+0  21375-3 0  9995",
        "tle_line2": "2 02807  89.6735 354.3353 0021451 140.0023 287.1767 13.50719362881468"
      },
      "geometry": {
        "type": "Point",
        "coordinates": [
          174.86894623303047,
          -59.039421003291714
        ]
      }
    },
    {
      "type": "Feature",
      "properties": {
        "norad_id": 2965,
        "name": "OPS 4947 (TRANSIT 17)",
        "group": "nnss",
        "lat": -31.729742889911122,
        "lon": -154.39277659308178,
        "alt_km": 1044.0701973114055,
        "timestamp": "2025-12-03T10:52:57.721692+00:00",
        "meta_object_name": "OPS 4947 (TRANSIT 17)",
        "meta_object_id": "1967-092A",
        "meta_epoch": "2025-12-03T02:59:56.707296",
        "meta_mean_motion": 13.53449887,
        "meta_eccentricity": 0.0045767,
        "meta_inclination": 89.2506,
        "meta_ra_of_asc_node": 25.1685,
        "meta_arg_of_pericenter": 263.4145,
        "meta_mean_anomaly": 149.0633,
        "meta_ephemeris_type": 0,
        "meta_classification_type": "U",
        "meta_norad_cat_id": 2965,
        "meta_element_set_no": 999,
        "meta_rev_at_epoch": 86967,
        "meta_bstar": 0.00022955,
        "meta_mean_motion_dot": 1.66e-06,
        "meta_mean_motion_ddot": 0,
        "tle_line1": "1 02965U 67092A   25337.12496189  .00000166  00000+0  22955-3 0  9994",
        "tle_line2": "2 02965  89.2506  25.1685 0045767 263.4145 149.0633 13.53449887869679"
      },
      "geometry": {
        "type": "Point",
        "coordinates": [
          -154.39277659308178,
          -31.729742889911122
        ]
      }
    },
    {
      "type": "Feature",
      "properties": {
        "norad_id": 3133,
        "name": "OPS 7034 (TRANSIT 18)",
        "group": "nnss",
        "lat": 63.602826683609294,
        "lon": -86.44121626334716,
        "alt_km": 1096.8935809380882,
        "timestamp": "2025-12-03T10:52:57.721706+00:00",
        "meta_object_name": "OPS 7034 (TRANSIT 18)",
        "meta_object_id": "1968-012A",
        "meta_epoch": "2025-12-02T20:38:59.970048",
        "meta_mean_motion": 13.51562273,
        "meta_eccentricity": 0.0072931,
        "meta_inclination": 90.0269,
        "meta_ra_of_asc_node": 273.6114,
        "meta_arg_of_pericenter": 197.8968,
        "meta_mean_anomaly": 222.6307,
        "meta_ephemeris_type": 0,
        "meta_classification_type": "U",
        "meta_norad_cat_id": 3133,
        "meta_element_set_no": 999,
        "meta_rev_at_epoch": 56785,
        "meta_bstar": 0.00016115,
        "meta_mean_motion_dot": 1.16e-06,
        "meta_mean_motion_ddot": 0,
        "tle_line1": "1 03133U 68012A   25336.86041632  .00000116  00000+0  16115-3 0  9990",
        "tle_line2": "2 03133  90.0269 273.6114 0072931 197.8968 222.6307 13.51562273567850"
      },
      "geometry": {
        "type": "Point",
        "coordinates": [
          -86.44121626334716,
          63.602826683609294
        ]
      }
    },
    {
      "type": "Feature",
      "properties": {
        "norad_id": 4507,
        "name": "NNSS 19 (TRANSIT 19)",
        "group": "nnss",
        "lat": 45.99722554336864,
        "lon": -125.47862945500094,
        "alt_km": 1051.5065518416723,
        "timestamp": "2025-12-03T10:52:57.721719+00:00",
        "meta_object_name": "NNSS 19 (TRANSIT 19)",
        "meta_object_id": "1970-067A",
        "meta_epoch": "2025-12-03T03:33:03.750048",
        "meta_mean_motion": 13.51311011,
        "meta_eccentricity": 0.01712,
        "meta_inclination": 90.0057,
        "meta_ra_of_asc_node": 234.5271,
        "meta_arg_of_pericenter": 321.3707,
        "meta_mean_anomaly": 37.5297,
        "meta_ephemeris_type": 0,
        "meta_classification_type": "U",
        "meta_norad_cat_id": 4507,
        "meta_element_set_no": 999,
        "meta_rev_at_epoch": 72092,
        "meta_bstar": 0.00026299,
        "meta_mean_motion_dot": 1.95e-06,
        "meta_mean_motion_ddot": 0,
        "tle_line1": "1 04507U 70067A   25337.14796007  .00000195  00000+0  26299-3 0  9995",
        "tle_line2": "2 04507  90.0057 234.5271 0171200 321.3707  37.5297 13.51311011720927"
      },
      "geometry": {
        "type": "Point",
        "coordinates": [
          -125.47862945500094,
          45.99722554336864
        ]
      }
    },
    {
      "type": "Feature",
      "properties": {
        "norad_id": 6909,
        "name": "NNSS 20 (TRANSIT 20)",
        "group": "nnss",
        "lat": 13.164247121134235,
        "lon": 75.15959460131639,
        "alt_km": 938.1345262162158,
        "timestamp": "2025-12-03T10:52:57.721731+00:00",
        "meta_object_name": "NNSS 20 (TRANSIT 20)",
        "meta_object_id": "1973-081A",
        "meta_epoch": "2025-12-03T01:19:58.549728",
        "meta_mean_motion": 13.71427459,
        "meta_eccentricity": 0.0156467,
        "meta_inclination": 89.8556,
        "meta_ra_of_asc_node": 255.1994,
        "meta_arg_of_pericenter": 106.995,
        "meta_mean_anomaly": 254.8426,
        "meta_ephemeris_type": 0,
        "meta_classification_type": "U",
        "meta_norad_cat_id": 6909,
        "meta_element_set_no": 999,
        "meta_rev_at_epoch": 80228,
        "meta_bstar": 0.00026591,
        "meta_mean_motion_dot": 2.73e-06,
        "meta_mean_motion_ddot": 0,
        "tle_line1": "1 06909U 73081A   25337.05553877  .00000273  00000+0  26591-3 0  9990",
        "tle_line2": "2 06909  89.8556 255.1994 0156467 106.9950 254.8426 13.71427459802285"
      },
      "geometry": {
        "type": "Point",
        "coordinates": [
          75.15959460131639,
          13.164247121134235
        ]
      }
    },
    {
      "type": "Feature",
      "properties": {
        "norad_id": 10457,
        "name": "TRANSAT",
        "group": "nnss",
        "lat": 51.98439120707353,
        "lon": -101.52458708995802,
        "alt_km": 1071.0130913890616,
        "timestamp": "2025-12-03T10:52:57.721742+00:00",
        "meta_object_name": "TRANSAT",
        "meta_object_id": "1977-106A",
        "meta_epoch": "2025-12-03T02:13:06.270816",
        "meta_mean_motion": 13.48941152,
        "meta_eccentricity": 0.0024524,
        "meta_inclination": 89.6482,
        "meta_ra_of_asc_node": 78.9385,
        "meta_arg_of_pericenter": 217.968,
        "meta_mean_anomaly": 318.1603,
        "meta_ephemeris_type": 0,
        "meta_classification_type": "U",
        "meta_norad_cat_id": 10457,
        "meta_element_set_no": 999,
        "meta_rev_at_epoch": 36613,
        "meta_bstar": 0.00013441,
        "meta_mean_motion_dot": 9.4e-07,
        "meta_mean_motion_ddot": 0,
        "tle_line1": "1 10457U 77106A   25337.09243369  .00000094  00000+0  13441-3 0  9992",
        "tle_line2": "2 10457  89.6482  78.9385 0024524 217.9680 318.1603 13.48941152366135"
      },
      "geometry": {
        "type": "Point",
        "coordinates": [
          -101.52458708995802,
          51.98439120707353
        ]
      }
    },
    {
      "type": "Feature",
      "properties": {
        "norad_id": 12458,
        "name": "NOVA 1",
        "group": "nnss",
        "lat": 13.195679966359885,
        "lon": -88.51822847856408,
        "alt_km": 1164.2490525356143,
        "timestamp": "2025-12-03T10:52:57.721754+00:00",
        "meta_object_name": "NOVA 1",
        "meta_object_id": "1981-044A",
        "meta_epoch": "2025-12-03T01:50:46.540320",
        "meta_mean_motion": 13.2327678,
        "meta_eccentricity": 0.0015596,
        "meta_inclination": 89.8522,
        "meta_ra_of_asc_node": 91.5218,
        "meta_arg_of_pericenter": 127.7764,
        "meta_mean_anomaly": 46.1872,
        "meta_ephemeris_type": 0,
        "meta_classification_type": "U",
        "meta_norad_cat_id": 12458,
        "meta_element_set_no": 999,
        "meta_rev_at_epoch": 15058,
        "meta_bstar": 0.00014865,
        "meta_mean_motion_dot": 7.2e-07,
        "meta_mean_motion_ddot": 0,
        "tle_line1": "1 12458U 81044A   25337.07692755  .00000072  00000+0  14865-3 0  9993",
        "tle_line2": "2 12458  89.8522  91.5218 0015596 127.7764  46.1872 13.23276780150588"
      },
      "geometry": {
        "type": "Point",
        "coordinates": [
          -88.51822847856408,
          13.195679966359885
        ]
      }
    }
  ]
}